{
    "links": {
        "self": "http://www.neowsapp.com/rest/v1/neo/3275977?api_key=iIulBulltgU6a56xZRHN4H3l9WmuAYTsLGpBGhQ2"
    },
    "id": "3275977",
    "neo_reference_id": "3275977",
    "name": "(2005 GQ33)",
    "designation": "2005 GQ33",
    "nasa_jpl_url": "http://ssd.jpl.nasa.gov/sbdb.cgi?sstr=3275977",
    "absolute_magnitude_h": 23.757,
    "estimated_diameter": {
        "kilometers": {
            "estimated_diameter_min": 0.0471145423,
            "estimated_diameter_max": 0.1053513193
        },
        "meters": {
            "estimated_diameter_min": 47.1145423151,
            "estimated_diameter_max": 105.3513193453
        },
        "miles": {
            "estimated_diameter_min": 0.0292756103,
            "estimated_diameter_max": 0.0654622547
        },
        "feet": {
            "estimated_diameter_min": 154.575275009,
            "estimated_diameter_max": 345.6408225609
        }
    },
    "is_potentially_hazardous_asteroid": false,
    "close_approach_data": [
        {
            "close_approach_date": "2005-04-01",
            "close_approach_date_full": "2005-Apr-01 05:54",
            "epoch_date_close_approach": 1112334840000,
            "relative_velocity": {
                "kilometers_per_second": "19.5427508067",
                "kilometers_per_hour": "70353.902904017",
                "miles_per_hour": "43715.1792794433"
            },
            "miss_distance": {
                "astronomical": "0.0319007301",
                "lunar": "12.4093840089",
                "kilometers": "4772281.274404887",
                "miles": "2965358.0784339606"
            },
            "orbiting_body": "Earth"
        }
    ],
    "orbital_data": {
        "orbit_id": "7",
        "orbit_determination_date": "2017-04-06 09:11:08",
        "first_observation_date": "2005-04-06",
        "last_observation_date": "2005-04-07",
        "data_arc_in_days": 1,
        "observations_used": 16,
        "orbit_uncertainty": "9",
        "minimum_orbit_intersection": ".0194417",
        "jupiter_tisserand_invariant": "3.145",
        "epoch_osculation": "2453467.5",
        "eccentricity": ".7296901361820148",
        "semi_major_axis": "2.333905913059811",
        "inclination": "1.552185304563697",
        "ascending_node_longitude": "73.65309024641317",
        "orbital_period": "1302.337192212895",
        "perihelion_distance": ".6308777895231878",
        "perihelion_argument": "36.47971858658072",
        "aphelion_distance": "4.036934036596434",
        "perihelion_time": "2453416.902734689878",
        "mean_anomaly": "13.9864050727857",
        "mean_motion": ".2764261069656607",
        "equinox": "J2000",
        "orbit_class": {
            "orbit_class_type": "APO",
            "orbit_class_description": "Near-Earth asteroid orbits which cross the Earth’s orbit similar to that of 1862 Apollo",
            "orbit_class_range": "a (semi-major axis) > 1.0 AU; q (perihelion) < 1.017 AU"
        }
    },
    "is_sentry_object": false
}